MEAN_MOTION;ECCENTRICITY;INCLINATION;RA_OF_ASC_NODE;ARG_OF_PERICENTER;MEAN_ANOMALY;BSTAR;MEAN_MOTION_DOT;MEAN_MOTION_DDOT;TYPE
14.38785347;0.0002483;86.4025;337.9256;35.6652;324.4712;1.9368E-5;7.9E-7;0;Iridium
14.38785428;0.0002426;86.4025;337.6917;34.9188;325.2169;1.9837E-5;8.1E-7;0;Iridium
14.38785428;0.0002426;86.4025;337.6917;34.9188;325.2169;1.9837E-5;8.1E-7;0;Iridium
14.38785461;0.0002374;86.4024;337.487;34.4112;325.724;1.8799E-5;7.8E-7;0;Iridium
14.38785522;0.0002332;86.4024;337.3116;33.6838;326.4508;1.9603E-5;8.0E-7;0;Iridium
14.38785593;0.0002274;86.4023;337.0777;33.0285;327.1055;2.0146E-5;8.2E-7;0;Iridium
14.38785671;0.000223;86.4022;336.8729;32.2852;327.8482;2.1374E-5;8.6E-7;0;Iridium
14.38785671;0.000223;86.4022;336.8729;32.2852;327.8482;2.1374E-5;8.6E-7;0;Iridium
14.38785733;0.0002189;86.4021;336.6975;31.6958;328.4372;2.2251E-5;8.8E-7;0;Iridium
14.38785836;0.0002129;86.402;336.4634;30.8886;329.2437;2.4483E-5;9.5E-7;0;Iridium
14.38785889;0.0002087;86.402;336.2879;30.2868;329.8451;2.5055E-5;9.7E-7;0;Iridium
14.38786007;0.0002023;86.4019;336.0539;29.3034;330.8277;2.7119E-5;1.03E-6;0;Iridium
14.38786046;0.0001973;86.4018;335.8493;28.577;331.5536;2.6307E-5;1.01E-6;0;Iridium
14.38786182;0.0001915;86.4018;335.6444;27.7083;332.4217;2.917E-5;1.1E-6;0;Iridium
14.38786212;0.0001856;86.4017;335.4105;27.3264;332.8032;2.7328E-5;1.04E-6;0;Iridium
14.3878632;0.0001806;86.4016;335.2057;26.6671;333.462;2.9384E-5;1.1E-6;0;Iridium
14.3878632;0.0001806;86.4016;335.2057;26.6671;333.462;2.9384E-5;1.1E-6;0;Iridium
14.38786369;0.0001752;86.4015;334.9716;25.9448;334.1838;2.7245E-5;1.04E-6;0;Iridium
14.38786499;0.0001648;86.4014;334.562;24.2885;335.8391;2.5176E-5;9.7E-7;0;Iridium
14.38786707;0.0001547;86.4012;334.211;24.0023;336.1247;2.7528E-5;1.04E-6;0;Iridium
14.38786716;0.0001531;86.4012;334.1525;23.9718;336.1552;2.6179E-5;1.0E-6;0;Iridium
14.38786788;0.0001477;86.4011;333.9185;23.2627;336.8638;2.5078E-5;9.7E-7;0;Iridium
14.38786887;0.0001428;86.401;333.7137;22.7479;337.3782;2.5245E-5;9.7E-7;0;Iridium
14.38786982;0.00014;86.4009;333.509;21.7089;338.4169;2.4904E-5;9.6E-7;0;Iridium
14.3878706;0.0001343;86.4008;333.3042;20.9943;339.1311;2.4235E-5;9.4E-7;0;Iridium
14.38787117;0.0001286;86.4008;333.1286;20.5084;339.6166;2.3739E-5;9.3E-7;0;Iridium
14.38787171;0.0001241;86.4007;332.9531;20.0851;340.0395;2.3234E-5;9.1E-7;0;Iridium
14.38787181;0.0001225;86.4007;332.8946;20.0128;340.1119;2.211E-5;8.8E-7;0;Iridium
14.3878725;0.0001161;86.4006;332.6897;19.7003;340.424;2.2213E-5;8.8E-7;0;Iridium
14.3878725;0.0001161;86.4006;332.6897;19.7003;340.424;2.2213E-5;8.8E-7;0;Iridium
14.38787347;0.000109;86.4005;332.4556;19.4335;340.6905;2.2657E-5;9.0E-7;0;Iridium
14.38787421;0.0001042;86.4005;332.28;18.9268;341.1969;2.3043E-5;9.1E-7;0;Iridium
14.38787502;9.92E-5;86.4004;332.1045;18.6477;341.4758;2.4409E-5;9.5E-7;0;Iridium
14.38787503;9.73E-5;86.4004;332.0459;18.7439;341.3795;2.3389E-5;9.2E-7;0;Iridium
14.38787623;8.78E-5;86.4003;331.6948;17.9653;342.1576;2.4271E-5;9.4E-7;0;Iridium
14.38787623;8.63E-5;86.4003;331.6363;18.0505;342.0724;2.3101E-5;9.1E-7;0;Iridium
14.38787623;8.63E-5;86.4003;331.6363;18.0505;342.0724;2.3101E-5;9.1E-7;0;Iridium
14.38787756;7.44E-5;86.4002;331.1974;17.9752;342.1472;2.4145E-5;9.4E-7;0;Iridium
14.38787901;6.87E-5;86.4001;331.0217;18.7945;341.3279;2.791E-5;1.06E-6;0;Iridium
14.38787974;6.27E-5;86.4;330.7876;18.8298;341.2923;2.7781E-5;1.05E-6;0;Iridium
14.38788167;5.3E-5;86.3999;330.4365;20.1021;340.0198;3.1438E-5;1.16E-6;0;Iridium
14.38788195;5.14E-5;86.3999;330.3779;20.4285;339.6934;3.1098E-5;1.15E-6;0;Iridium
14.38788334;4.45E-5;86.3998;330.1438;23.0163;337.1055;3.3785E-5;1.24E-6;0;Iridium
14.38788638;2.98E-5;86.3995;329.5877;30.7935;329.3281;3.6198E-5;1.31E-6;0;Iridium
14.38788653;2.86E-5;86.3995;329.5292;31.7984;328.3232;3.5194E-5;1.28E-6;0;Iridium
14.38788861;2.04E-5;86.3993;329.1779;43.6447;316.4767;3.6708E-5;1.33E-6;0;Iridium
14.38788894;1.96E-5;86.3993;329.1194;45.3362;314.7852;3.6385E-5;1.32E-6;0;Iridium
14.38789098;1.52E-5;86.3991;328.7389;81.0568;279.0648;3.6371E-5;1.32E-6;0;Iridium
14.38789105;1.54E-5;86.399;328.6804;87.7339;272.3877;3.5271E-5;1.28E-6;0;Iridium
14.38789175;1.58E-5;86.399;328.534;102.8048;257.3168;3.4972E-5;1.27E-6;0;Iridium
14.38789393;2.22E-5;86.3988;328.0949;133.5182;226.6035;3.2728E-5;1.2E-6;0;Iridium
14.38789489;2.6E-5;86.3987;327.9193;139.9898;220.132;3.2643E-5;1.2E-6;0;Iridium
14.38789512;2.73E-5;86.3987;327.8607;141.5457;218.5761;3.1635E-5;1.17E-6;0;Iridium
14.38789627;3.24E-5;86.3986;327.6558;146.3221;213.7998;3.2107E-5;1.19E-6;0;Iridium
14.38789767;4.29E-5;86.3984;327.2459;151.697;208.4251;2.8388E-5;1.07E-6;0;Iridium
14.38790066;5.76E-5;86.3982;326.6604;155.6639;204.4587;2.9621E-5;1.11E-6;0;Iridium
14.38790136;6.19E-5;86.3981;326.5139;156.177;203.9457;3.0276E-5;1.13E-6;0;Iridium
14.38790287;7.07E-5;86.3979;326.1918;156.0111;204.1121;2.9998E-5;1.12E-6;0;Iridium
14.38790304;7.38E-5;86.3979;326.104;156.1904;203.9329;3.017E-5;1.13E-6;0;Iridium
14.38790419;8.37E-5;86.3978;325.7525;156.1479;203.9759;2.8473E-5;1.07E-6;0;Iridium
14.38790621;9.55E-5;86.3976;325.3426;155.8538;204.2706;3.042E-5;1.13E-6;0;Iridium
14.38790602;9.76E-5;86.3976;325.3133;155.5337;204.5907;2.9708E-5;1.11E-6;0;Iridium
14.38790767;0.0001063;86.3975;324.9911;154.6095;205.5156;3.1793E-5;1.18E-6;0;Iridium
14.38790795;0.000108;86.3975;324.9325;154.4666;205.6586;3.1362E-5;1.16E-6;0;Iridium
14.387909;0.0001175;86.3973;324.5518;153.6769;206.4489;3.0093E-5;1.12E-6;0;Iridium
14.387909;0.0001175;86.3973;324.5518;153.6769;206.4489;3.0093E-5;1.12E-6;0;Iridium
14.38790912;0.000119;86.3973;324.4932;153.6177;206.5082;2.913E-5;1.09E-6;0;Iridium
14.3879103;0.0001293;86.3972;324.0832;153.1638;206.9627;2.7691E-5;1.05E-6;0;Iridium
14.38791196;0.0001424;86.397;323.6731;152.1247;208.0028;2.7679E-5;1.05E-6;0;Iridium
14.38791294;0.0001528;86.3969;323.2923;151.121;209.0073;2.5135E-5;9.7E-7;0;Iridium
14.38791319;0.000157;86.3968;323.1459;150.8877;209.2409;2.4136E-5;9.4E-7;0;Iridium
14.38791462;0.0001663;86.3968;322.8238;150.0703;210.0591;2.2912E-5;9.0E-7;0;Iridium
14.38791457;0.0001671;86.3968;322.7945;149.9805;210.149;2.2472E-5;8.9E-7;0;Iridium
14.38791578;0.0001781;86.3966;322.4137;148.665;211.4655;2.0272E-5;8.2E-7;0;Iridium
14.38791582;0.0001787;86.3966;322.3844;148.5777;211.5528;2.0081E-5;8.2E-7;0;Iridium
14.38791706;0.0001891;86.3965;321.9743;147.2276;212.904;1.8189E-5;7.6E-7;0;Iridium
14.38791737;0.000192;86.3965;321.8571;146.9957;213.1362;1.844E-5;7.7E-7;0;Iridium
14.38791819;0.0001978;86.3964;321.5935;146.1468;213.9856;1.7506E-5;7.4E-7;0;Iridium
14.38791819;0.0001978;86.3964;321.5935;146.1468;213.9856;1.7506E-5;7.4E-7;0;Iridium
14.3879182;0.0001986;86.3964;321.5642;146.0677;214.0649;1.6931E-5;7.2E-7;0;Iridium
14.38791922;0.000207;86.3962;321.2126;144.9412;215.1923;1.763E-5;7.4E-7;0;Iridium
14.38792001;0.0002134;86.3962;320.9489;144.077;216.0572;1.7909E-5;7.5E-7;0;Iridium
14.38792064;0.000218;86.3961;320.7731;143.428;216.7067;1.8896E-5;7.8E-7;0;Iridium
14.38792107;0.0002221;86.3962;320.5973;142.9772;217.158;1.9341E-5;7.9E-7;0;Iridium
14.38792247;0.0002294;86.3961;320.275;141.8535;218.2826;2.1615E-5;8.6E-7;0;Iridium
14.38792247;0.0002294;86.3961;320.275;141.8535;218.2826;2.1615E-5;8.6E-7;0;Iridium
14.38792405;0.000238;86.3961;319.9235;140.6159;219.5213;2.4414E-5;9.5E-7;0;Iridium
14.38792406;0.0002393;86.3961;319.8649;140.3938;219.7435;2.3827E-5;9.3E-7;0;Iridium
14.3879255;0.0002486;86.396;319.484;139.0431;221.0954;2.564E-5;9.9E-7;0;Iridium
14.38792583;0.0002523;86.396;319.3374;138.6235;221.5154;2.6288E-5;1.01E-6;0;Iridium
14.3879273;0.0002589;86.3959;319.0444;137.595;222.5449;2.7845E-5;1.05E-6;0;Iridium
14.3879277;0.0002616;86.3959;318.9272;137.2768;222.8634;2.8885E-5;1.09E-6;0;Iridium
14.38792898;0.0002674;86.3958;318.6635;136.2704;223.8707;2.9234E-5;1.1E-6;0;Iridium
14.38792967;0.0002714;86.3958;318.4877;135.6842;224.4574;3.0182E-5;1.13E-6;0;Iridium
14.38793126;0.0002776;86.3957;318.2239;134.6597;225.4828;3.1384E-5;1.16E-6;0;Iridium
14.38793182;0.0002808;86.3957;318.0774;134.2353;225.9076;3.1737E-5;1.17E-6;0;Iridium
14.38793316;0.0002859;86.3956;317.8137;133.2683;226.8754;3.1568E-5;1.17E-6;0;Iridium
14.3879332;0.0002865;86.3956;317.7844;133.1776;226.9662;3.1087E-5;1.15E-6;0;Iridium
14.38793359;0.0002893;86.3956;317.6672;132.8846;227.2595;3.1143E-5;1.16E-6;0;Iridium
14.38793474;0.0002946;86.3955;317.4034;131.8912;228.2538;2.9578E-5;1.11E-6;0;Iridium
14.3879348;0.0002952;86.3955;317.3741;131.7868;228.3583;2.9036E-5;1.09E-6;0;Iridium
14.38793553;0.0002984;86.3954;317.2276;131.2791;228.8664;2.9716E-5;1.11E-6;0;Iridium
14.38793686;0.0003043;86.3954;316.9638;130.2711;229.8754;2.8439E-5;1.07E-6;0;Iridium
14.38793686;0.0003043;86.3954;316.9638;130.2711;229.8754;2.8439E-5;1.07E-6;0;Iridium
14.38793686;0.0003043;86.3954;316.9638;130.2711;229.8754;2.8439E-5;1.07E-6;0;Iridium
14.38793742;0.0003072;86.3954;316.8173;129.8004;230.3465;2.8369E-5;1.07E-6;0;Iridium
14.38793889;0.0003129;86.3954;316.5243;128.7108;231.437;2.7211E-5;1.04E-6;0;Iridium
14.38793939;0.0003152;86.3954;316.4071;128.4231;231.7251;2.7636E-5;1.05E-6;0;Iridium
14.38794097;0.000321;86.3954;316.1141;127.3647;232.7844;2.696E-5;1.03E-6;0;Iridium
14.3879416;0.0003239;86.3954;315.9675;126.9049;233.2447;2.7587E-5;1.05E-6;0;Iridium
14.38794274;0.0003291;86.3953;315.7038;125.8596;234.2909;2.6245E-5;1.01E-6;0;Iridium
14.38794332;0.0003318;86.3953;315.5572;125.3831;234.7678;2.6727E-5;1.02E-6;0;Iridium
14.38794504;0.0003381;86.3954;315.147;123.9462;236.2058;2.6866E-5;1.03E-6;0;Iridium
14.38794652;0.0003427;86.3953;314.854;122.8513;237.3015;2.7758E-5;1.05E-6;0;Iridium
14.38794809;0.0003496;86.3953;314.4437;121.3282;238.8259;2.8227E-5;1.07E-6;0;Iridium
14.38794859;0.0003524;86.3954;314.2972;120.8856;239.2689;2.9422E-5;1.1E-6;0;Iridium
14.38794998;0.0003576;86.3954;314.0041;119.9072;240.2482;3.0288E-5;1.13E-6;0;Iridium
14.38795112;0.0003599;86.3954;313.8575;119.4938;240.662;3.4046E-5;1.25E-6;0;Iridium
14.38795226;0.0003638;86.3954;313.5937;118.5445;241.612;3.4198E-5;1.25E-6;0;Iridium
